{
"type": "FeatureCollection",
"name": "courtyard",
"crs": { "type": "name", "properties": { "name": "urn:ogc:def:crs:EPSG::3857" } },
"features": [
{ "type": "Feature", "properties": { "id": 0 }, "geometry": { "type": "Point", "coordinates": [ 10.868550799032104, 3.056339596180198 ] } },
{ "type": "Feature", "properties": { "id": 1 }, "geometry": { "type": "Point", "coordinates": [ 6.880204558986532, 4.07661421572674 ] } },
{ "type": "Feature", "properties": { "id": 2 }, "geometry": { "type": "Point", "coordinates": [ 2.845482199870662, 5.050512716202984 ] } },
{ "type": "Feature", "properties": { "id": 3 }, "geometry": { "type": "Point", "coordinates": [ 3.541123985925123, 8.2504649320535 ] } },
{ "type": "Feature", "properties": { "id": 4 }, "geometry": { "type": "Point", "coordinates": [ 4.144013533838988, 11.728673862325802 ] } },
{ "type": "Feature", "properties": { "id": 5 }, "geometry": { "type": "Point", "coordinates": [ 8.178735892954856, 10.986655957201044 ] } },
{ "type": "Feature", "properties": { "id": 6 }, "geometry": { "type": "Point", "coordinates": [ 11.378688108805374, 10.291014171146584 ] } },
{ "type": "Feature", "properties": { "id": 7 }, "geometry": { "type": "Point", "coordinates": [ 10.914926918102401, 6.34904405017131 ] } },
{ "type": "Feature", "properties": { "id": 8 }, "geometry": { "type": "Point", "coordinates": [ 7.807726940392478, 7.647575384139635 ] } },
{ "type": "Feature", "properties": { "id": 9 }, "geometry": { "type": "Point", "coordinates": [ 8.596120964587532, 6.580924645522797 ] } },
{ "type": "Feature", "properties": { "id": 10000 }, "geometry": { "type": "LineString", "coordinates": [ [ 8.596120964587532, 6.580924645522797 ], [ 7.807726940392478, 7.647575384139635 ] ] } },
{ "type": "Feature", "properties": { "id": 10001 }, "geometry": { "type": "LineString", "coordinates": [ [ 7.807726940392478, 7.647575384139635 ], [ 3.541123985925123, 8.2504649320535 ] ] } },
{ "type": "Feature", "properties": { "id": 10002 }, "geometry": { "type": "LineString", "coordinates": [ [ 3.541123985925123, 8.2504649320535 ], [ 7.807726940392478, 7.647575384139635 ] ] } },
{ "type": "Feature", "properties": { "id": 10003 }, "geometry": { "type": "LineString", "coordinates": [ [ 3.541123985925123, 8.2504649320535 ], [ 2.845482199870662, 5.050512716202984 ] ] } },
{ "type": "Feature", "properties": { "id": 10004 }, "geometry": { "type": "LineString", "coordinates": [ [ 2.845482199870662, 5.050512716202984 ], [ 3.541123985925123, 8.2504649320535 ] ] } },
{ "type": "Feature", "properties": { "id": 10005 }, "geometry": { "type": "LineString", "coordinates": [ [ 2.845482199870662, 5.050512716202984 ], [ 6.880204558986532, 4.07661421572674 ] ] } },
{ "type": "Feature", "properties": { "id": 10006 }, "geometry": { "type": "LineString", "coordinates": [ [ 6.880204558986532, 4.07661421572674 ], [ 2.845482199870662, 5.050512716202984 ] ] } },
{ "type": "Feature", "properties": { "id": 10007 }, "geometry": { "type": "LineString", "coordinates": [ [ 6.880204558986532, 4.07661421572674 ], [ 10.868550799032104, 3.056339596180198 ] ] } },
{ "type": "Feature", "properties": { "id": 10008 }, "geometry": { "type": "LineString", "coordinates": [ [ 10.868550799032104, 3.056339596180198 ], [ 6.880204558986532, 4.07661421572674 ] ] } },
{ "type": "Feature", "properties": { "id": 10009 }, "geometry": { "type": "LineString", "coordinates": [ [ 10.868550799032104, 3.056339596180198 ], [ 10.914926918102401, 6.34904405017131 ] ] } },
{ "type": "Feature", "properties": { "id": 10010 }, "geometry": { "type": "LineString", "coordinates": [ [ 10.914926918102401, 6.34904405017131 ], [ 10.868550799032104, 3.056339596180198 ] ] } },
{ "type": "Feature", "properties": { "id": 10011 }, "geometry": { "type": "LineString", "coordinates": [ [ 10.914926918102401, 6.34904405017131 ], [ 11.378688108805374, 10.291014171146584 ] ] } },
{ "type": "Feature", "properties": { "id": 10012 }, "geometry": { "type": "LineString", "coordinates": [ [ 11.378688108805374, 10.291014171146584 ], [ 10.914926918102401, 6.34904405017131 ] ] } },
{ "type": "Feature", "properties": { "id": 10013 }, "geometry": { "type": "LineString", "coordinates": [ [ 11.378688108805374, 10.291014171146584 ], [ 8.178735892954856, 10.986655957201044 ] ] } },
{ "type": "Feature", "properties": { "id": 10014 }, "geometry": { "type": "LineString", "coordinates": [ [ 8.178735892954856, 10.986655957201044 ], [ 11.378688108805374, 10.291014171146584 ] ] } },
{ "type": "Feature", "properties": { "id": 10015 }, "geometry": { "type": "LineString", "coordinates": [ [ 8.178735892954856, 10.986655957201044 ], [ 4.144013533838988, 11.728673862325802 ] ] } },
{ "type": "Feature", "properties": { "id": 10016 }, "geometry": { "type": "LineString", "coordinates": [ [ 4.144013533838988, 11.728673862325802 ], [ 8.178735892954856, 10.986655957201044 ] ] } },
{ "type": "Feature", "properties": { "id": 10017 }, "geometry": { "type": "LineString", "coordinates": [ [ 4.144013533838988, 11.728673862325802 ], [ 3.541123985925123, 8.2504649320535 ] ] } },
{ "type": "Feature", "properties": { "id": 10018 }, "geometry": { "type": "LineString", "coordinates": [ [ 3.541123985925123, 8.2504649320535 ], [ 4.144013533838988, 11.728673862325802 ] ] } },
{ "type": "Feature", "properties": { "id": 10019 }, "geometry": { "type": "LineString", "coordinates": [ [ 8.178735892954856, 10.986655957201044 ], [ 7.807726940392478, 7.647575384139635 ] ] } },
{ "type": "Feature", "properties": { "id": 10020 }, "geometry": { "type": "LineString", "coordinates": [ [ 7.807726940392478, 7.647575384139635 ], [ 8.178735892954856, 10.986655957201044 ] ] } },
{ "type": "Feature", "properties": { "id": 10021 }, "geometry": { "type": "LineString", "coordinates": [ [ 7.807726940392478, 7.647575384139635 ], [ 10.914926918102401, 6.34904405017131 ] ] } },
{ "type": "Feature", "properties": { "id": 10022 }, "geometry": { "type": "LineString", "coordinates": [ [ 10.914926918102401, 6.34904405017131 ], [ 7.807726940392478, 7.647575384139635 ] ] } },
{ "type": "Feature", "properties": { "id": 10023 }, "geometry": { "type": "LineString", "coordinates": [ [ 7.807726940392478, 7.647575384139635 ], [ 6.880204558986532, 4.07661421572674 ] ] } },
{ "type": "Feature", "properties": { "id": 10024 }, "geometry": { "type": "LineString", "coordinates": [ [ 6.880204558986532, 4.07661421572674 ], [ 7.807726940392478, 7.647575384139635 ] ] } }
]
}
